GLOBALSTAR M057         
1 25943U 99058A   25127.14763643 -.00000057  00000+0  32590-3 0  9999
2 25943  51.9965 104.6715 0002675 298.1018  61.9561 12.24818921161973
GLOBALSTAR M059         
1 25944U 99058B   25126.96242953 -.00000053  00000+0  41257-3 0  9991
2 25944  52.0031 318.6998 0000668 140.7804   6.8014 11.99979660569090
GLOBALSTAR M056         
1 25945U 99058C   25126.86764867 -.00000081  00000+0  78211-4 0  9996
2 25945  51.9979 321.9756 0001875  98.7591   5.9851 12.04778648157648
GLOBALSTAR M031         
1 25946U 99058D   25127.22037848  .00000035  00000+0  12770-2 0  9994
2 25946  51.9952 215.7969 0001677 109.9129 265.7318 12.16034923159806
GLOBALSTAR M039         
1 25961U 99062A   25126.83287127 -.00000049  00000+0  30683-3 0  9999
2 25961  51.9867  34.6722 0002010 259.5170 100.5470 12.62325367175026
GLOBALSTAR M034         
1 25962U 99062B   25126.24166720 -.00000045  00000+0  56224-3 0  9995
2 25962  51.9843 120.4197 0014294 321.6550  51.8400 11.79447905133442
GLOBALSTAR M029         
1 25963U 99062C   25126.79969228 -.00000067  00000+0  23670-3 0  9993
2 25963  51.9793 207.2124 0002297  46.4182  90.1937 11.99895987164202
GLOBALSTAR M061         
1 25964U 99062D   25127.87014913 -.00000046  00000+0  56766-3 0  9995
2 25964  51.9801 299.6891 0005396 242.9566 217.0527 11.76774749116727
